{"type": "FeatureCollection", "features": [ {"type": "Feature", "properties": {"norad_id": 65943, "name": "E-KAGAKU-1", "group": "stations", "lat": 45.41829231599392, "lon": -71.60419559129026, "alt_km": 384.3354402741097, "timestamp": "2025-12-08T08:58:59.574011+00:00", "meta": {"OBJECT_NAME": "E-KAGAKU-1", "OBJECT_ID": "1998-067XQ", "EPOCH": "2025-12-07T18:38:39.521184", "MEAN_MOTION": 15.58562644, "ECCENTRICITY": 0.00029586, "INCLINATION": 51.6295, "RA_OF_ASC_NODE": 164.9078, "ARG_OF_PERICENTER": 173.7443, "MEAN_ANOMALY": 186.3587, "EPHEMERIS_TYPE": 0, "CLASSIFICATION_TYPE": "U", "NORAD_CAT_ID": 65943, "ELEMENT_SET_NO": 999, "REV_AT_EPOCH": 908, "BSTAR": 0.0011280115, "MEAN_MOTION_DOT": 0.00088516, "MEAN_MOTION_DDOT": 0}, "tle": {"line1": "1 65943U 98067XQ  25341.77684631  .00088516  00000+0  11280-2 0  9995", "line2": "2 65943  51.6295 164.9078 0002958 173.7443 186.3587 15.58562644  9086"}}, "geometry": {"type": "Point", "coordinates": [-71.60419559129026, 45.41829231599392]}}, {"type": "Feature", "properties": {"norad_id": 66052, "name": "HRC MONOBLOCK CAMERA", "group": "stations", "lat": 0.5136877208727287, "lon": -17.142048387789906, "alt_km": 403.9636915640276, "timestamp": "2025-12-08T08:58:59.574021+00:00", "meta": {"OBJECT_NAME": "HRC MONOBLOCK CAMERA", "OBJECT_ID": "1998-067XR", "EPOCH": "2025-12-07T18:19:18.655104", "MEAN_MOTION": 15.53649665, "ECCENTRICITY": 0.000398, "INCLINATION": 51.6286, "RA_OF_ASC_NODE": 166.3103, "ARG_OF_PERICENTER": 163.9442, "MEAN_ANOMALY": 196.1676, "EPHEMERIS_TYPE": 0, "CLASSIFICATION_TYPE": "U", "NORAD_CAT_ID": 66052, "ELEMENT_SET_NO": 999, "REV_AT_EPOCH": 806, "BSTAR": 0.00070532392, "MEAN_MOTION_DOT": 0.0004568, "MEAN_MOTION_DDOT": 0}, "tle": {"line1": "1 66052U 98067XR  25341.76341036  .00045680  00000+0  70532-3 0  9996", "line2": "2 66052  51.6286 166.3103 0003980 163.9442 196.1676 15.53649665  8068"}}, "geometry": {"type": "Point", "coordinates": [-17.142048387789906, 0.5136877208727287]}}, {"type": "Feature", "properties": {"norad_id": 66174, "name": "HTV-X1", "group": "stations", "lat": 28.926279128418116, "lon": -41.873881888049866, "alt_km": 414.3035635230126, "timestamp": "2025-12-08T08:58:59.574032+00:00", "meta": {"OBJECT_NAME": "HTV-X1", "OBJECT_ID": "2025-241A", "EPOCH": "2025-12-07T21:32:16.385568", "MEAN_MOTION": 15.49404055, "ECCENTRICITY": 0.0003425, "INCLINATION": 51.6302, "RA_OF_ASC_NODE": 166.4547, "ARG_OF_PERICENTER": 217.7386, "MEAN_ANOMALY": 142.3363, "EPHEMERIS_TYPE": 0, "CLASSIFICATION_TYPE": "U", "NORAD_CAT_ID": 66174, "ELEMENT_SET_NO": 999, "REV_AT_EPOCH": 51, "BSTAR": 0.00022339025, "MEAN_MOTION_DOT": 0.00012051, "MEAN_MOTION_DDOT": 0}, "tle": {"line1": "1 66174U 25241A   25341.89741187  .00012051  00000+0  22339-3 0  9998", "line2": "2 66174  51.6302 166.4547 0003425 217.7386 142.3363 15.49404055   519"}}, "geometry": {"type": "Point", "coordinates": [-41.873881888049866, 28.926279128418116]}}, {"type": "Feature", "properties": {"norad_id": 66515, "name": "SZ-21 MODULE", "group": "stations", "lat": -33.07461400504404, "lon": -4.826398074381954, "alt_km": 382.5054432825509, "timestamp": "2025-12-08T08:58:59.574042+00:00", "meta": {"OBJECT_NAME": "SZ-21 MODULE", "OBJECT_ID": "2025-246C", "EPOCH": "2025-12-07T20:56:43.117728", "MEAN_MOTION": 15.62136924, "ECCENTRICITY": 0.00062043, "INCLINATION": 41.4776, "RA_OF_ASC_NODE": 45.7288, "ARG_OF_PERICENTER": 233.3043, "MEAN_ANOMALY": 126.7226, "EPHEMERIS_TYPE": 0, "CLASSIFICATION_TYPE": "U", "NORAD_CAT_ID": 66515, "ELEMENT_SET_NO": 999, "REV_AT_EPOCH": 368, "BSTAR": 0.00033745404, "MEAN_MOTION_DOT": 0.00030277, "MEAN_MOTION_DDOT": 0}, "tle": {"line1": "1 66515U 25246C   25341.87272127  .00030277  00000+0  33745-3 0  9996", "line2": "2 66515  41.4776  45.7288 0006204 233.3043 126.7226 15.62136924  3680"}}, "geometry": {"type": "Point", "coordinates": [-4.826398074381954, -33.07461400504404]}}, {"type": "Feature", "properties": {"norad_id": 66645, "name": "SHENZHOU-22", "group": "stations", "lat": 41.41901136532578, "lon": 130.62473334955317, "alt_km": 384.4172270236013, "timestamp": "2025-12-08T08:58:59.574055+00:00", "meta": {"OBJECT_NAME": "SHENZHOU-22", "OBJECT_ID": "2025-272A", "EPOCH": "2025-12-07T23:22:56.643744", "MEAN_MOTION": 15.58863749, "ECCENTRICITY": 0.00092535, "INCLINATION": 41.4683, "RA_OF_ASC_NODE": 45.6321, "ARG_OF_PERICENTER": 352.4121, "MEAN_ANOMALY": 7.6575, "EPHEMERIS_TYPE": 0, "CLASSIFICATION_TYPE": "U", "NORAD_CAT_ID": 66645, "ELEMENT_SET_NO": 999, "REV_AT_EPOCH": 26300, "BSTAR": 0.00029193568, "MEAN_MOTION_DOT": 0.00023028, "MEAN_MOTION_DDOT": 0}, "tle": {"line1": "1 66645U 25272A   25341.97426671  .00023028  00000+0  29194-3 0  9994", "line2": "2 66645  41.4683  45.6321 0009253 352.4121   7.6575 15.58863749263000"}}, "geometry": {"type": "Point", "coordinates": [130.62473334955317, 41.41901136532578]}}, {"type": "Feature", "properties": {"norad_id": 66646, "name": "CZ-2F R/B", "group": "stations", "lat": -37.27660122029948, "lon": -23.43668553934517, "alt_km": 96.47306129127537, "timestamp": "2025-12-08T08:58:59.574068+00:00", "meta": {"OBJECT_NAME": "CZ-2F R/B", "OBJECT_ID": "2025-272B", "EPOCH": "2025-12-07T13:00:15.028704", "MEAN_MOTION": 16.47453798, "ECCENTRICITY": 0.002214, "INCLINATION": 41.4535, "RA_OF_ASC_NODE": 41.9834, "ARG_OF_PERICENTER": 229.6731, "MEAN_ANOMALY": 130.2205, "EPHEMERIS_TYPE": 0, "CLASSIFICATION_TYPE": "U", "NORAD_CAT_ID": 66646, "ELEMENT_SET_NO": 999, "REV_AT_EPOCH": 200, "BSTAR": 0.00015075, "MEAN_MOTION_DOT": 0.11903621, "MEAN_MOTION_DDOT": 8.0762e-06}, "tle": {"line1": "1 66646U 25272B   25341.54184061  .11903621  80762-5  15075-3 0  9992", "line2": "2 66646  41.4535  41.9834 0022140 229.6731 130.2205 16.47453798  2009"}}, "geometry": {"type": "Point", "coordinates": [-23.43668553934517, -37.27660122029948]}}, {"type": "Feature", "properties": {"norad_id": 66664, "name": "SOYUZ-MS 28", "group": "stations", "lat": 28.926277031725842, "lon": -41.87387947865673, "alt_km": 414.3035637448529, "timestamp": "2025-12-08T08:58:59.574078+00:00", "meta": {"OBJECT_NAME": "SOYUZ-MS 28", "OBJECT_ID": "2025-275A", "EPOCH": "2025-12-07T21:32:16.385568", "MEAN_MOTION": 15.49404055, "ECCENTRICITY": 0.0003425, "INCLINATION": 51.6302, "RA_OF_ASC_NODE": 166.4547, "ARG_OF_PERICENTER": 217.7386, "MEAN_ANOMALY": 142.3363, "EPHEMERIS_TYPE": 0, "CLASSIFICATION_TYPE": "U", "NORAD_CAT_ID": 66664, "ELEMENT_SET_NO": 999, "REV_AT_EPOCH": 128, "BSTAR": 0.00022339025, "MEAN_MOTION_DOT": 0.00012051, "MEAN_MOTION_DDOT": 0}, "tle": {"line1": "1 66664U 25275A   25341.89741187  .00012051  00000+0  22339-3 0  9999", "line2": "2 66664  51.6302 166.4547 0003425 217.7386 142.3363 15.49404055  1288"}}, "geometry": {"type": "Point", "coordinates": [-41.87387947865673, 28.926277031725842]}}, {"type": "Feature", "properties": {"norad_id": 66906, "name": "1998-067XS", "group": "stations", "lat": 17.81008101112009, "lon": -30.684689419634754, "alt_km": 411.6682326439204, "timestamp": "2025-12-08T08:58:59.574089+00:00", "meta": {"OBJECT_NAME": "1998-067XS", "OBJECT_ID": "1998-067XS", "EPOCH": "2025-12-07T18:23:05.277120", "MEAN_MOTION": 15.50202047, "ECCENTRICITY": 0.00041027, "INCLINATION": 51.6298, "RA_OF_ASC_NODE": 167.0779, "ARG_OF_PERICENTER": 180.8323, "MEAN_ANOMALY": 179.266, "EPHEMERIS_TYPE": 0, "CLASSIFICATION_TYPE": "U", "NORAD_CAT_ID": 66906, "ELEMENT_SET_NO": 999, "REV_AT_EPOCH": 84, "BSTAR": 0.00058960248, "MEAN_MOTION_DOT": 0.00033584, "MEAN_MOTION_DDOT": 0}, "tle": {"line1": "1 66906U 98067XS  25341.76603330  .00033584  00000+0  58960-3 0  9993", "line2": "2 66906  51.6298 167.0779 0004102 180.8323 179.2660 15.50202047   848"}}, "geometry": {"type": "Point", "coordinates": [-30.684689419634754, 17.81008101112009]}}, {"type": "Feature", "properties": {"norad_id": 66907, "name": "1998-067XT", "group": "stations", "lat": 14.145373933406658, "lon": -27.466952298949597, "alt_km": 410.72952617241845, "timestamp": "2025-12-08T08:58:59.574099+00:00", "meta": {"OBJECT_NAME": "1998-067XT", "OBJECT_ID": "1998-067XT", "EPOCH": "2025-12-07T21:27:41.929920", "MEAN_MOTION": 15.50640627, "ECCENTRICITY": 0.00050838, "INCLINATION": 51.63, "RA_OF_ASC_NODE": 166.4336, "ARG_OF_PERICENTER": 199.2143, "MEAN_ANOMALY": 160.8655, "EPHEMERIS_TYPE": 0, "CLASSIFICATION_TYPE": "U", "NORAD_CAT_ID": 66907, "ELEMENT_SET_NO": 999, "REV_AT_EPOCH": 86, "BSTAR": 0.0010871959, "MEAN_MOTION_DOT": 0.00063549, "MEAN_MOTION_DDOT": 0}, "tle": {"line1": "1 66907U 98067XT  25341.89423530  .00063549  00000+0  10872-2 0  9993", "line2": "2 66907  51.6300 166.4336 0005083 199.2143 160.8655 15.50640627   860"}}, "geometry": {"type": "Point", "coordinates": [-27.466952298949597, 14.145373933406658]}}, {"type": "Feature", "properties": {"norad_id": 66908, "name": "1998-067XU", "group": "stations", "lat": 13.386460708983758, "lon": -26.819458207108823, "alt_km": 410.53948829458477, "timestamp": "2025-12-08T08:58:59.574109+00:00", "meta": {"OBJECT_NAME": "1998-067XU", "OBJECT_ID": "1998-067XU", "EPOCH": "2025-12-07T19:54:39.986208", "MEAN_MOTION": 15.50677163, "ECCENTRICITY": 0.00052497, "INCLINATION": 51.6294, "RA_OF_ASC_NODE": 166.7524, "ARG_OF_PERICENTER": 198.4563, "MEAN_ANOMALY": 161.6236, "EPHEMERIS_TYPE": 0, "CLASSIFICATION_TYPE": "U", "NORAD_CAT_ID": 66908, "ELEMENT_SET_NO": 999, "REV_AT_EPOCH": 85, "BSTAR": 0.0012583992, "MEAN_MOTION_DOT": 0.00073824, "MEAN_MOTION_DDOT": 0}, "tle": {"line1": "1 66908U 98067XU  25341.82962947  .00073824  00000+0  12584-2 0  9996", "line2": "2 66908  51.6294 166.7524 0005249 198.4563 161.6236 15.50677163   854"}}, "geometry": {"type": "Point", "coordinates": [-26.819458207108823, 13.386460708983758]}}]}